OBJECT_NAME,OBJECT_ID,EPOCH,MEAN_MOTION,ECCENTRICITY,INCLINATION,RA_OF_ASC_NODE,ARG_OF_PERICENTER,MEAN_ANOMALY,EPHEMERIS_TYPE,CLASSIFICATION_TYPE,NORAD_CAT_ID,ELEMENT_SET_NO,REV_AT_EPOCH,BSTAR,MEAN_MOTION_DOT,MEAN_MOTION_DDOT
LINGQIAO VIDEO A,2015-057B,2026-07-13T12:06:19.529280,14.77426260,.0016469,97.6626,188.0096,178.4617,181.6648,0,U,40959,999,57929,.77955E-4,.508E-5,0
LINGQIAO VIDEO B,2015-057C,2026-07-13T13:07:32.320704,14.77531145,.0016667,97.6592,189.2065,178.4194,181.7072,0,U,40960,999,57934,.74197E-4,.482E-5,0
JILIN-1,2015-057D,2026-07-13T11:32:30.675840,14.78199866,.0017062,97.6519,192.5437,172.3941,187.7533,0,U,40961,999,57949,.63468E-4,.412E-5,0
FOX-1A (AO-85),2015-058D,2026-07-13T09:02:14.152416,14.91081725,.0132208,64.7723,197.5870,46.4986,314.7024,0,U,40967,999,11747,.15942E-3,.169E-4,0
SINOD-D 1,2015-058E,2026-07-13T08:24:22.489056,14.96077409,.0120896,64.7731,176.9685,42.8594,318.1865,0,U,40968,999,12057,.23839E-3,.293E-4,0
ELEKTRO-L 2,2015-074A,2026-07-13T09:58:25.818240,1.00272170,.0000973,6.7568,70.1954,213.8203,142.3782,0,U,41105,999,3876,0,-.126E-5,0
DAMPE,2015-078A,2026-07-13T12:16:00.562368,15.30851797,.0011772,97.4562,200.1085,351.7843,8.3203,0,U,41173,999,58857,.34928E-4,.965E-5,0
ORBCOMM FM110,2015-081D,2026-07-12T12:17:03.074496,14.58916062,.00034922,47.0008,241.6985,211.7770,148.2905,0,U,41182,999,56132,.72511838E-4,.172E-5,0
ORBCOMM FM112,2015-081F,2026-07-13T07:17:12.909696,14.58937084,.0003803,46.9979,146.7451,320.5231,39.5377,0,U,41184,999,56276,.10612E-3,.331E-5,0
ORBCOMM FM113,2015-081G,2026-07-13T06:44:51.156096,14.58880972,.0002327,46.9998,147.2412,314.1982,45.8713,0,U,41185,999,56274,.64855E-4,.135E-5,0
ORBCOMM FM108,2015-081J,2026-07-13T00:54:19.598976,14.58908772,.00027708,47.0053,59.9728,314.2400,45.8258,0,U,41187,999,56385,.97932067E-4,.292E-5,0
ORBCOMM FM117,2015-081K,2026-07-13T00:04:57.417312,14.58895854,.00031988,47.0016,58.7625,320.9684,39.0971,0,U,41188,999,56389,.93001181E-4,.268E-5,0
ORBCOMM FM116,2015-081L,2026-07-13T06:10:51.074112,14.58904456,.0001541,47.0013,147.3497,225.9507,134.1252,0,U,41189,999,56274,.50849E-4,.69E-6,0
ZIYUAN 3-02 (ZY 3-02),2016-033A,2026-07-13T11:59:25.243008,15.21424245,.0013889,97.3832,269.7677,190.8080,169.2859,0,U,41556,999,56198,.13691E-3,.3011E-4,0
CARTOSAT-2C,2016-040A,2026-07-13T11:19:56.855712,15.19258376,.0009721,97.4479,254.0866,50.9938,309.2160,0,U,41599,999,55770,.15713E-3,.3247E-4,0
LAPAN-A3,2016-040E,2026-07-13T10:16:22.376064,15.33271266,.0008231,97.1497,189.7157,283.7897,76.2430,0,U,41603,999,55883,.62416E-4,.1933E-4,0
GAOFEN-3,2016-049A,2026-07-13T12:24:26.614944,14.42218899,.0001788,98.4014,201.9055,85.6130,274.5264,0,U,41727,999,52244,.35704E-4,.74E-6,0
CAS-2T & KS-1Q,2016-066G,2026-07-13T05:05:23.360352,14.44767960,.03423502,98.3814,269.6505,50.7667,312.3386,0,U,41847,999,50855,.94681853E-4,.617E-5,0
YUNHAI-1 01,2016-068A,2026-07-13T11:56:37.004064,14.32722455,.0003347,98.5847,205.2595,353.8558,6.2584,0,U,41857,999,50559,.2045E-3,.513E-5,0
RESOURCESAT-2A,2016-074A,2026-07-13T11:08:26.772000,14.21609574,.00025,98.7527,267.7526,32.6694,327.4638,0,U,41877,999,49803,.21033E-3,.417E-5,0
TANSAT,2016-081A,2026-07-13T11:56:22.552800,14.59971161,.0019329,98.5367,195.5336,225.6352,134.3264,0,U,41898,999,50846,.68252E-4,.277E-5,0
JILIN-1 03,2017-002B,2026-07-13T12:06:00.141984,15.42203638,.0007943,97.1946,201.2287,83.8903,276.3249,0,U,41914,999,52591,.19183E-3,.8156E-4,0
CARTOSAT-2D,2017-008A,2026-07-13T12:05:42.822240,15.19280019,.0005826,97.4099,253.3159,144.1131,216.0496,0,U,41948,999,52157,.19358E-3,.4017E-4,0
CARTOSAT-2E,2017-036C,2026-07-13T10:56:24.498240,15.19246491,.0003084,97.4267,253.8234,195.1223,164.9920,0,U,42767,999,50213,.13318E-3,.2739E-4,0
